[{"OBJECT_NAME":"STARLINK-5850","OBJECT_ID":"2023-088B","EPOCH":"2026-03-09T19:32:35.950272","MEAN_MOTION":15.02527791,"ECCENTRICITY":0.00013674,"INCLINATION":43.0034,"RA_OF_ASC_NODE":107.2133,"ARG_OF_PERICENTER":266.6473,"MEAN_ANOMALY":93.4213,"EPHEMERIS_TYPE":0,"CLASSIFICATION_TYPE":"U","NORAD_CAT_ID":57049,"ELEMENT_SET_NO":999,"REV_AT_EPOCH":15057,"BSTAR":-0.00010138277,"MEAN_MOTION_DOT":-1.573e-5,"MEAN_MOTION_DDOT":0},{"OBJECT_NAME":"PEGASUS DEB","OBJECT_ID":"1994-029AFQ","EPOCH":"2026-03-08T03:35:33.923616","MEAN_MOTION":14.03181486,"ECCENTRICITY":0.04520735,"INCLINATION":82.1295,"RA_OF_ASC_NODE":34.4203,"ARG_OF_PERICENTER":342.2511,"MEAN_ANOMALY":16.3288,"EPHEMERIS_TYPE":0,"CLASSIFICATION_TYPE":"U","NORAD_CAT_ID":39917,"ELEMENT_SET_NO":999,"REV_AT_EPOCH":9491,"BSTAR":0.0063311837,"MEAN_MOTION_DOT":0.00024723,"MEAN_MOTION_DDOT":0}]
